KUIPER-00089            
1 64834U 25151U   25207.16668981  .00000721  00000+0  31822-4 0  9999
2 64834  51.8786 239.9038 0005781 187.4800 202.0530 15.35212053  1511
KUIPER-00090            
1 64835U 25151V   25207.16668981  .00001670  00000+0  59568-4 0  9991
2 64835  51.8782 239.9188 0006143 196.4726 184.7724 15.34982133  1506
KUIPER-00091            
1 64836U 25151W   25207.16668981  .00001691  00000+0  58957-4 0  9996
2 64836  51.8779 239.8671 0006082 169.3910 235.7286 15.35661207  1513
KUIPER-00092            
1 64837U 25151X   25207.16668981  .00000624  00000+0  28857-4 0  9998
2 64837  51.8775 239.8810 0005700 176.9529 220.6835 15.35450071  2723
KUIPER-00093            
1 64838U 25151Y   25207.83335648  .00017553  00000+0  51488-3 0  9998
2 64838  51.8788 236.6900 0005488 181.8347 294.9397 15.35243232  1612
KUIPER-00094            
1 64839U 25151Z   25207.16668981  .00000643  00000+0  29342-4 0  9991
2 64839  51.8777 239.8789 0005529 176.1079 222.8181 15.35506749  1746
